GPS BIIR-5  (PRN 22)    
1 26407U 00040A   26178.70595247  .00000081  00000+0  00000+0 0  9993
2 26407  54.8503 214.7444 0120895 302.5581  16.1396  2.00557856190151
GPS BIIR-8  (PRN 16)    
1 27663U 03005A   26178.07688515  .00000081  00000+0  00000+0 0  9993
2 27663  54.8809 214.5757 0148019  53.1001 307.4769  2.00560140171502
GPS BIIR-11 (PRN 19)    
1 28190U 04009A   26178.36951721 -.00000043  00000+0  00000+0 0  9997
2 28190  54.8210 275.2756 0116509 173.5373 191.2481  2.00554539163152
GPS BIIR-13 (PRN 02)    
1 28474U 04045A   26178.52985552 -.00000102  00000+0  00000+0 0  9995
2 28474  55.1297 324.4797 0169925 316.6549 228.8680  2.00556517158636
GPS BIIRM-1 (PRN 17)    
1 28874U 05038A   26178.88121686 -.00000032  00000+0  00000+0 0  9993
2 28874  54.8692 272.7457 0128018 296.2471 107.0540  2.00565085152051
GPS BIIRM-2 (PRN 31)    
1 29486U 06042A   26178.46440980  .00000035  00000+0  00000+0 0  9996
2 29486  54.7119 150.9309 0106814  54.6929 306.2910  2.00569334144608
GPS BIIRM-3 (PRN 12)    
1 29601U 06052A   26177.89165157  .00000083  00000+0  00000+0 0  9995
2 29601  54.9336 213.6215 0084877  90.7582 270.2951  2.00558656143602
GPS BIIRM-4 (PRN 15)    
1 32260U 07047A   26178.19682157 -.00000070  00000+0  00000+0 0  9990
2 32260  54.1023  79.6530 0167143  87.5980 274.3314  2.00554886137013
GPS BIIRM-5 (PRN 29)    
1 32384U 07062A   26178.63377729 -.00000037  00000+0  00000+0 0  9992
2 32384  55.0232 273.7325 0035862 166.3244 276.7056  2.00560815135726
GPS BIIRM-6 (PRN 07)    
1 32711U 08012A   26178.60578132  .00000031  00000+0  00000+0 0  9993
2 32711  54.4987 149.5086 0211438 247.9631 109.7489  2.00572777133964
GPS BIIRM-8 (PRN 05)    
1 35752U 09043A   26178.59006079 -.00000078  00000+0  00000+0 0  9992
2 35752  56.2169  27.0433 0053814  83.6480 274.0032  2.00553909123560
GPS BIIF-1  (PRN 25)    
1 36585U 10022A   26178.49231297  .00000085  00000+0  00000+0 0  9994
2 36585  54.2697 208.1468 0126433  66.1261 340.0224  2.00563021117803
GPS BIIF-3  (PRN 24)    
1 38833U 12053A   26178.28751091  .00000019  00000+0  00000+0 0  9991
2 38833  53.5876 143.1856 0180902  65.9164 295.9270  2.00567719 99649
GPS BIIF-4  (PRN 27)    
1 39166U 13023A   26177.65617133 -.00000035  00000+0  00000+0 0  9996
2 39166  54.4965 268.5877 0141436  51.0497 310.2453  2.00563559 96073
GPS BIIF-5  (PRN 30)    
1 39533U 14008A   26178.65507009  .00000028  00000+0  00000+0 0  9990
2 39533  53.6561 148.8928 0084213 231.4049 127.8072  2.00560533 89897
GPS BIIF-6  (PRN 06)    
1 39741U 14026A   26178.43213384 -.00000101  00000+0  00000+0 0  9990
2 39741  56.4930 331.1188 0038118 326.3102  33.4391  2.00560388 88748
GPS BIIF-7  (PRN 09)    
1 40105U 14045A   26177.02815772 -.00000068  00000+0  00000+0 0  9992
2 40105  55.3587  88.1127 0033686 118.2750 242.0678  2.00559107 86251
GPS BIIF-8  (PRN 03)    
1 40294U 14068A   26178.89160175 -.00000074  00000+0  00000+0 0  9999
2 40294  56.9949  30.5424 0067264  70.9950 289.7934  2.00577000 85428
GPS BIIF-9  (PRN 26)    
1 40534U 15013A   26178.53317465  .00000084  00000+0  00000+0 0  9994
2 40534  53.1673 203.7495 0109793  40.2080 320.6683  2.00550864 82037
GPS BIIF-10 (PRN 08)    
1 40730U 15033A   26178.69157995 -.00000021  00000+0  00000+0 0  9993
2 40730  53.9742 266.6532 0115140  30.2326 330.4797  2.00555813 80206
GPS BIIF-11 (PRN 10)    
1 41019U 15062A   26177.75006963 -.00000080  00000+0  00000+0 0  9995
2 41019  56.9659  30.4428 0112188 230.9710 128.0791  2.00567519 78021
GPS BIIF-12 (PRN 32)    
1 41328U 16007A   26177.34308400 -.00000066  00000+0  00000+0 0  9998
2 41328  55.5293  89.0967 0095637 247.1706 111.8201  2.00551441 76026
GPS BIII-1  (PRN 04)    
1 43873U 18109A   26178.00642937 -.00000061  00000+0  00000+0 0  9995
2 43873  55.6876  91.7992 0038448 197.7271 175.9628  2.00562310 55278
GPS BIII-2  (PRN 18)    
1 44506U 19056A   26178.61984648 -.00000102  00000+0  00000+0 0  9992
2 44506  55.6316 330.7281 0062499 197.6941 162.8365  2.00570185 50282
GPS BIII-3  (PRN 23)    
1 45854U 20041A   26178.70806252 -.00000076  00000+0  00000+0 0  9999
2 45854  56.6768  28.5351 0064576 204.4803 157.7037  2.00558724 44257
GPS BIII-4  (PRN 14)    
1 46826U 20078A   26178.81366495  .00000082  00000+0  00000+0 0  9997
2 46826  53.9788 210.3474 0073876 207.5667 207.5672  2.00565150 41720
GPS BIII-5  (PRN 11)    
1 48859U 21054A   26178.73087329 -.00000102  00000+0  00000+0 0  9991
2 48859  55.1691 332.0357 0025737 228.3381 313.3239  2.00568668 36966
GPS BIII-6  (PRN 28)    
1 55268U 23009A   26178.92981966  .00000027  00000+0  00000+0 0  9991
2 55268  55.1241 148.0967 0006263 317.3274  46.4275  2.00570960 25469
GPS BIII-7  (PRN 01)    
1 62339U 24242A   26177.06783932 -.00000106  00000+0  00000+0 0  9994
2 62339  54.8454 333.8210 0017666   4.5395 177.0108  2.00572026 11434
GPS BIII-8  (PRN 21)    
1 64202U 25116A   26178.80819903 -.00000078  00000+0  00000+0 0  9995
2 64202  55.2417  30.7029 0008259 342.1141 199.0923  2.00575452  8080
GPS BIII-9  (PRN 20)    
1 67588U 26017A   26178.16854364 -.00000063  00000+0  00000+0 0  9999
2 67588  55.0946  88.3546 0021174 258.3861 101.3819  2.00570971431818
GPS BIII-10 (PRN 13)    
1 68791U 26087A   26173.65141046  .00000058  00000+0  00000+0 0  9991
2 68791  54.9627 207.5713 0020681 106.6591  76.9843  2.00570839   940
